CCSDS_OMM_VERS,COMMENT,CREATION_DATE,ORIGINATOR,OBJECT_NAME,OBJECT_ID,CENTER_NAME,REF_FRAME,TIME_SYSTEM,MEAN_ELEMENT_THEORY,EPOCH,MEAN_MOTION,ECCENTRICITY,INCLINATION,RA_OF_ASC_NODE,ARG_OF_PERICENTER,MEAN_ANOMALY,EPHEMERIS_TYPE,CLASSIFICATION_TYPE,NORAD_CAT_ID,ELEMENT_SET_NO,REV_AT_EPOCH,BSTAR,MEAN_MOTION_DOT,MEAN_MOTION_DDOT,SEMIMAJOR_AXIS,PERIOD,APOAPSIS,PERIAPSIS,OBJECT_TYPE,RCS_SIZE,COUNTRY_CODE,LAUNCH_DATE,SITE,DECAY_DATE,FILE,GP_ID,TLE_LINE0,TLE_LINE1,TLE_LINE2
"3.0","GENERATED VIA SPACE-TRACK.ORG API","2026-03-25T17:29:05","18 SPCS","ERS 2 DEB","1995-021E","EARTH","TEME","UTC","SGP4","2026-03-25T09:59:26.481408","14.48822943","0.00060435","98.6114","65.9892","23.2110","129.5823","0","U","35391","999","98555","0.00059994274000","0.00002221","0.0000000000000","7107.633","99.391","733.793","725.202","DEBRIS","SMALL","ESA","1995-04-21","FRGUI","","5096884","317011798","0 ERS 2 DEB","1 35391U 95021E   26084.41627872  .00002221  00000-0  59994-3 0  9991","2 35391  98.6114  65.9892 0006044  23.2110 129.5823 14.48822943985551"
"3.0","GENERATED VIA SPACE-TRACK.ORG API","2026-03-25T04:32:27","18 SPCS","ERS 2 DEB","1995-021F","EARTH","TEME","UTC","SGP4","2026-03-24T20:36:49.385952","14.54091738","0.00037279","98.3080","55.9275","28.6989","331.4412","0","U","35392","999","95696","0.00071812343000","0.00002989","0.0000000000000","7090.453","99.031","714.961","709.675","DEBRIS","SMALL","ESA","1995-04-21","FRGUI","","5096755","316977687","0 ERS 2 DEB","1 35392U 95021F   26083.85890493  .00002989  00000-0  71812-3 0  9994","2 35392  98.3080  55.9275 0003728  28.6989 331.4412 14.54091738956962"
"3.0","GENERATED VIA SPACE-TRACK.ORG API","2026-03-25T17:29:05","18 SPCS","ERS 2 DEB","1995-021G","EARTH","TEME","UTC","SGP4","2026-03-25T10:39:09.178272","14.55890199","0.00036654","98.5062","62.6634","172.2203","340.0400","0","U","35393","999","19002","0.00066033829000","0.00002852","0.0000000000000","7084.612","98.909","709.074","703.881","DEBRIS","SMALL","ESA","1995-04-21","FRGUI","","5096884","317011799","0 ERS 2 DEB","1 35393U 95021G   26084.44385623  .00002852  00000-0  66034-3 0  9994","2 35393  98.5062  62.6634 0003665 172.2203 340.0400 14.55890199190023"
"3.0","GENERATED VIA SPACE-TRACK.ORG API","2026-03-25T17:29:05","18 SPCS","CZ-4 DEB","2007-042E","EARTH","TEME","UTC","SGP4","2026-03-25T12:46:18.395040","14.89992809","0.00628735","98.6321","185.7883","349.3722","10.6160","0","U","35397","999","97271","0.00086035528000","0.00008547","0.0000000000000","6976.095","96.645","641.821","554.099","DEBRIS","SMALL","PRC","2007-09-19","TSC","","5096884","317010881","0 CZ-4 DEB","1 35397U 07042E   26084.53215735  .00008547  00000-0  86036-3 0  9991","2 35397  98.6321 185.7883 0062874 349.3722  10.6160 14.89992809972714"
"3.0","GENERATED VIA SPACE-TRACK.ORG API","2026-03-25T17:29:05","18 SPCS","ALOS DEB","2006-002Z","EARTH","TEME","UTC","SGP4","2026-03-25T05:00:30.100608","14.85391759","0.00021968","98.1910","69.7402","95.5280","276.1618","0","U","35418","999","2157","0.00046433213000","0.00003942","0.0000000000000","6990.493","96.944","613.894","610.823","DEBRIS","SMALL","JPN","2006-01-24","TNSTA","","5096884","317010885","0 ALOS DEB","1 35418U 06002Z   26084.20868172  .00003942  00000-0  46433-3 0  9994","2 35418  98.1910  69.7402 0002197  95.5280 276.1618 14.85391759 21575"
"3.0","GENERATED VIA SPACE-TRACK.ORG API","2026-03-25T04:32:27","18 SPCS","DMSP 5D-2 F11 DEB","1991-082CQ","EARTH","TEME","UTC","SGP4","2026-03-24T17:52:51.862944","14.81536985","0.00232008","98.8027","174.7451","258.9584","251.8710","0","U","35534","999","74725","0.00354008810000","0.00027949","0.0000000000000","7002.614","97.196","640.725","608.232","DEBRIS","SMALL","US","1991-11-28","AFWTR","","5096755","316978646","0 DMSP 5D-2 F11 DEB","1 35534U 91082CQ  26083.74504471  .00027949  00000-0  35401-2 0  9997","2 35534  98.8027 174.7451 0023201 258.9584 251.8710 14.81536985747253"
"3.0","GENERATED VIA SPACE-TRACK.ORG API","2026-03-25T17:29:05","18 SPCS","SL-24 DEB","2009-041J","EARTH","TEME","UTC","SGP4","2026-03-25T13:01:41.667168","14.84955002","0.00196411","97.6349","258.2807","178.3102","181.8184","0","U","35689","999","89667","0.00028545717000","0.00002388","0.0000000000000","6991.864","96.973","627.462","599.996","DEBRIS","LARGE","CIS","2009-07-29","TTMTR","","5096884","317011879","0 SL-24 DEB","1 35689U 09041J   26084.54284337  .00002388  00000-0  28546-3 0  9990","2 35689  97.6349 258.2807 0019641 178.3102 181.8184 14.84955002896671"
"3.0","GENERATED VIA SPACE-TRACK.ORG API","2026-03-25T17:29:05","18 SPCS","SL-19 DEB","2009-059C","EARTH","TEME","UTC","SGP4","2026-03-25T10:46:18.669216","14.60192803","0.00108596","98.1818","269.1293","105.6169","275.4202","0","U","36038","999","87084","0.00016897915000","0.00000768","0.0000000000000","7070.689","98.617","700.232","684.875","DEBRIS","MEDIUM","CIS","2009-11-02","PKMTR","","5096884","317012435","0 SL-19 DEB","1 36038U 09059C   26084.44882719  .00000768  00000-0  16898-3 0  9992","2 36038  98.1818 269.1293 0010860 105.6169 275.4202 14.60192803870845"
"3.0","GENERATED VIA SPACE-TRACK.ORG API","2026-03-25T04:32:27","18 SPCS","FENGYUN 1C DEB","1999-025DSA","EARTH","TEME","UTC","SGP4","2026-03-24T17:10:06.411072","14.51543398","0.00326129","98.5848","180.9801","102.0124","258.4729","0","U","36153","999","66442","0.00145318660000","0.00005810","0.0000000000000","7098.749","99.205","743.765","697.463","DEBRIS","SMALL","PRC","1999-05-10","TSC","","5096755","316979270","0 FENGYUN 1C DEB","1 36153U 99025DSA 26083.71535198  .00005810  00000-0  14532-2 0  9992","2 36153  98.5848 180.9801 0032613 102.0124 258.4729 14.51543398664426"
"3.0","GENERATED VIA SPACE-TRACK.ORG API","2026-03-25T04:32:27","18 SPCS","FENGYUN 1C DEB","1999-025DSL","EARTH","TEME","UTC","SGP4","2026-03-24T13:41:28.391136","14.63272931","0.00359839","99.0802","302.4797","123.4876","236.9771","0","U","36163","999","90674","0.00262441370000","0.00013628","0.0000000000000","7060.763","98.410","708.035","657.220","DEBRIS","SMALL","PRC","1999-05-10","TSC","","5096755","316979273","0 FENGYUN 1C DEB","1 36163U 99025DSL 26083.57046749  .00013628  00000-0  26244-2 0  9995","2 36163  99.0802 302.4797 0035984 123.4876 236.9771 14.63272931906740"
"3.0","GENERATED VIA SPACE-TRACK.ORG API","2026-03-25T17:29:05","18 SPCS","FENGYUN 1C DEB","1999-025DTM","EARTH","TEME","UTC","SGP4","2026-03-25T13:47:52.379520","14.63808070","0.00432115","98.5823","193.9920","347.7182","12.2962","0","U","36188","999","89555","0.00198482630000","0.00010458","0.0000000000000","7059.042","98.374","711.410","650.404","DEBRIS","SMALL","PRC","1999-05-10","TSC","","5096884","317011972","0 FENGYUN 1C DEB","1 36188U 99025DTM 26084.57491180  .00010458  00000-0  19848-2 0  9996","2 36188  98.5823 193.9920 0043211 347.7182  12.2962 14.63808070895550"
"3.0","GENERATED VIA SPACE-TRACK.ORG API","2026-03-21T13:34:27","18 SPCS","FENGYUN 1C DEB","1999-025DTZ","EARTH","TEME","UTC","SGP4","2026-03-20T23:44:37.264416","14.63302869","0.00318841","99.3783","171.9785","78.3624","282.1150","0","U","36200","999","74795","0.00334955840000","0.00017394","0.0000000000000","7060.666","98.408","705.044","660.019","DEBRIS","SMALL","PRC","1999-05-10","TSC","","5094773","316679788","0 FENGYUN 1C DEB","1 36200U 99025DTZ 26079.98932019  .00017394  00000-0  33496-2 0  9992","2 36200  99.3783 171.9785 0031884  78.3624 282.1150 14.63302869747957"
"3.0","GENERATED VIA SPACE-TRACK.ORG API","2026-03-01T02:42:53","18 SPCS","FENGYUN 1C DEB","1999-025DUC","EARTH","TEME","UTC","SGP4","2026-01-23T14:31:17.438016","14.79378156","0.00829551","99.1014","337.8172","19.5507","340.8850","0","U","36203","999","64048","0.00248125550000","0.00019585","0.0000000000000","7009.425","97.338","689.436","573.143","DEBRIS","SMALL","PRC","1999-05-10","TSC","","5061557","314384718","0 FENGYUN 1C DEB","1 36203U 99025DUC 26023.60506294  .00019585  00000-0  24813-2 0  9992","2 36203  99.1014 337.8172 0082955  19.5507 340.8850 14.79378156640488"
"3.0","GENERATED VIA SPACE-TRACK.ORG API","2026-03-25T17:29:05","18 SPCS","FENGYUN 1C DEB","1999-025DUT","EARTH","TEME","UTC","SGP4","2026-03-25T13:00:25.389792","14.72537904","0.00708663","99.0728","302.3631","337.2777","22.5295","0","U","36218","999","60655","0.00076678157000","0.00005006","0.0000000000000","7031.115","97.790","702.807","603.153","DEBRIS","SMALL","PRC","1999-05-10","TSC","","5096884","317011980","0 FENGYUN 1C DEB","1 36218U 99025DUT 26084.54196053  .00005006  00000-0  76678-3 0  9996","2 36218  99.0728 302.3631 0070866 337.2777  22.5295 14.72537904606557"
"3.0","GENERATED VIA SPACE-TRACK.ORG API","2025-08-07T02:11:08","18 SPCS","FENGYUN 1C DEB","1999-025DUY","EARTH","TEME","UTC","SGP4","2025-01-03T01:05:16.228608","14.56911944","0.00623760","98.3330","300.0384","164.1654","196.1514","0","U","36223","999","3088","0.01276700000000","0.00059271","0.0000000000000","7081.300","98.839","747.335","658.994","DEBRIS","SMALL","PRC","1999-05-10","TSC","","4806584","294474641","0 FENGYUN 1C DEB","1 36223U 99025DUY 25003.04532672  .00059271  00000-0  12767-1 0  9998","2 36223  98.3330 300.0384 0062376 164.1654 196.1514 14.56911944 30883"
"3.0","GENERATED VIA SPACE-TRACK.ORG API","2025-08-07T02:11:08","18 SPCS","NADEZHDA 6 DEB","2000-033E","EARTH","TEME","UTC","SGP4","2011-06-04T09:05:37.089600","14.64487700","0.00163210","98.2991","206.5319","128.4357","231.6048","0","U","36294","999","17945","-0.00192140000000","-0.00010230","0.0000000000000","7056.858","98.328","690.240","667.205","DEBRIS","SMALL","CIS","2000-06-28","PKMTR","","4806584","294474662","0 NADEZHDA 6 DEB","1 36294U 00033E   11155.37890150 -.00010230  00000-0 -19214-2 0  9993","2 36294  98.2991 206.5319 0016321 128.4357 231.6048 14.64487700179454"
